BEIDOU 3 (C01)          
1 36287U 10001A   22077.54375029 -.00000280  00000+0  00000+0 0  9990
2 36287   1.9227  48.4995 0002691   5.9244  97.8330  1.00273729 44605
BEIDOU 5 (C06)          
1 36828U 10036A   22077.22234870 -.00000144  00000+0  00000+0 0  9991
2 36828  54.1920 177.0654 0027582 183.2012   4.2311  1.00272622 42662
BEIDOU 6 (C04)          
1 37210U 10057A   22077.52271706 -.00000112  00000+0  00000+0 0  9997
2 37210   1.0068  55.6338 0003427 147.2790 321.3351  1.00271485 41726
BEIDOU 7 (C07)          
1 37256U 10068A   22077.52271439 -.00000166  00000+0  00000+0 0  9991
2 37256  50.3726 290.7329 0017928 182.8801 359.2608  1.00278574 41232
BEIDOU 8 (C08)          
1 37384U 11013A   22077.64965101 -.00000156  00000+0  00000+0 0  9992
2 37384  60.1650  55.1539 0019356 196.0875 267.5728  1.00279866 40115
BEIDOU 9 (C09)          
1 37763U 11038A   22077.22640194 -.00000082  00000+0  00000+0 0  9994
2 37763  54.4760 179.5476 0090594 226.0222 303.8407  1.00254252 39082
BEIDOU 10 (C10)         
1 37948U 11073A   22077.39162285 -.00000118  00000+0  00000+0 0  9996
2 37948  50.4872 290.3661 0077064 217.7001 264.7896  1.00273716 37849
BEIDOU 11 (C05)         
1 38091U 12008A   22077.52744050  .00000057  00000+0  00000+0 0  9997
2 38091   1.3653  64.7638 0014363 315.7447  44.0620  1.00277422 36913
BEIDOU 12 (C11)         
1 38250U 12018A   22076.18975563 -.00000080  00000+0  00000+0 0  9998
2 38250  56.7179 356.6074 0022736 257.9079  13.9334  1.86234344 67365
BEIDOU 13 (C12)         
1 38251U 12018B   22077.51564241 -.00000076  00000+0  00000+0 0  9999
2 38251  56.6359 355.8937 0013514 264.6745 220.3745  1.86234229 67398
BEIDOU 15 (C14)         
1 38775U 12050B   22077.15708163  .00000058  00000+0  00000+0 0  9998
2 38775  55.3459 114.7579 0014414 318.4460 122.8385  1.86231289 64769
BEIDOU 16 (C02)         
1 38953U 12059A   22077.53249917 -.00000176  00000+0  00000+0 0  9996
2 38953   1.7624  84.5578 0013234 288.3117  78.9635  1.00273081 34355
BEIDOU 17 (C31)         
1 40549U 15019A   22077.38866220 -.00000138  00000+0  00000+0 0  9992
2 40549  52.0400 313.8124 0035306 189.0316 267.7039  1.00261783 25528
BEIDOU 18 (C57)         
1 40748U 15037A   22076.73028726 -.00000078  00000+0  00000+0 0  9995
2 40748  55.8909 354.8422 0005493   1.3332 226.7325  1.86233261 45202
BEIDOU 19 (C58)         
1 40749U 15037B   22077.51351278 -.00000076  00000+0  00000+0 0  9992
2 40749  55.8942 354.8053 0006800 330.7428 197.3384  1.86232214 45214
BEIDOU 20 (C18)         
1 40938U 15053A   22077.22418088 -.00000097  00000+0  00000+0 0  9994
2 40938  51.6418 276.9164 0043729 192.6072 242.7571  1.00266900 23791
BEIDOU IGSO-6 (C13)     
1 41434U 16021A   22077.39122252 -.00000117  00000+0  00000+0 0  9998
2 41434  57.9674  53.7732 0043364 219.9646 136.5011  1.00260028 21919
BEIDOU-2 G7 (C03)       
1 41586U 16037A   22077.53773223 -.00000354  00000+0  00000+0 0  9992
2 41586   1.7741  68.3134 0008709 356.5613  55.2348  1.00277383 21230
BEIDOU-3 M1 (C19)       
1 43001U 17069A   22077.35281035  .00000058  00000+0  00000+0 0  9997
2 43001  55.4994 114.7397 0011489 286.9496  81.7531  1.86231635 29703
BEIDOU-3 M2 (C20)       
1 43002U 17069B   22077.28841128  .00000058  00000+0  00000+0 0  9995
2 43002  55.4996 114.7773 0009314 305.2536  63.4146  1.86231380 29692
BEIDOU-3 M3 (C27)       
1 43107U 18003A   22077.18319844 -.00000078  00000+0  00000+0 0  9997
2 43107  55.3398 355.7856 0005146  39.3890  64.7646  1.86232402 28457
BEIDOU-3 M4 (C28)       
1 43108U 18003B   22077.17565749 -.00000078  00000+0  00000+0 0  9994
2 43108  55.3334 355.7753 0003084 275.6032 227.8944  1.86230845 28458
BEIDOU-3 M5 (C21)       
1 43207U 18018A   22076.87068345  .00000058  00000+0  00000+0 0  9993
2 43207  55.4580 114.8726 0006446 321.4599  38.5854  1.86231645 27836
BEIDOU-3 M6 (C22)       
1 43208U 18018B   22076.40037680  .00000058  00000+0  00000+0 0  9991
2 43208  55.4576 114.8933 0009525 296.1751  63.8175  1.86231685 27821
BEIDOU-3 M7 (C29)       
1 43245U 18029A   22076.53144083 -.00000079  00000+0  00000+0 0  9998
2 43245  55.2581 353.5811 0001502 345.6250 311.9169  1.86232457 26977
BEIDOU-3 M8 (C30)       
1 43246U 18029B   22077.41270366 -.00000076  00000+0  10000-3 0  9993
2 43246  55.2547 353.5821 0005333 355.2187 219.6349  1.86232974 26982
BEIDOU IGSO-7 (C16)     
1 43539U 18057A   22076.77822128 -.00000148  00000+0  00000+0 0  9991
2 43539  55.0746 176.5176 0045966 224.0075 165.7467  1.00285802 13596
BEIDOU-3 M9 (C23)       
1 43581U 18062A   22077.32292440  .00000030  00000+0  00000+0 0  9993
2 43581  54.3052 235.2035 0001845 317.7648  47.6526  1.86231832 24736
BEIDOU-3 M10 (C24)      
1 43582U 18062B   22077.08342962  .00000029  00000+0  00000+0 0  9990
2 43582  54.3054 235.2009 0006298  24.0831 272.4708  1.86232103 24720
BEIDOU-3 M11 (C25)      
1 43602U 18067A   22077.01201759  .00000028  00000+0  00000+0 0  9998
2 43602  54.3863 233.8103 0007616  15.2957 274.9379  1.86231638 24213
BEIDOU-3 M12 (C26)      
1 43603U 18067B   22076.67399674  .00000027  00000+0  00000+0 0  9993
2 43603  54.3836 233.7892 0004628  10.7090 323.2892  1.86231579 24229
BEIDOU-3 M13 (C32)      
1 43622U 18072A   22077.33115031  .00000058  00000+0  00000+0 0  9991
2 43622  55.4249 114.4154 0008057 281.9668 162.1745  1.86231502 23759
BEIDOU-3 M14 (C33)      
1 43623U 18072B   22077.34355051  .00000058  00000+0  00000+0 0  9991
2 43623  55.4261 114.4074 0005796 301.1264 241.5617  1.86231496 23751
BEIDOU-3 M15 (C34)      
1 43647U 18078A   22077.00760671 -.00000078  00000+0 -72319+0 0  9990
2 43647  55.1525 353.7333 0007747 359.7683 213.1299  1.86232978 23257
BEIDOU-3 M16 (C35)      
1 43648U 18078B   22077.15848750 -.00000077  00000+0  00000+0 0  9998
2 43648  55.1493 353.7338 0005627   7.0046 215.0094  1.86232188 23277
BEIDOU-3 G1 (C59)       
1 43683U 18085A   22077.52826887 -.00000279  00000+0  00000+0 0  9997
2 43683   0.8391 182.4712 0002181 327.4863 356.3181  1.00274252 12493
BEIDOU-3 M17 (C36)      
1 43706U 18093A   22077.51616742  .00000031  00000+0  00000+0 0  9993
2 43706  54.3881 235.0752 0007449 279.8652  80.0011  1.86231790 22649
BEIDOU-3 M18 (C37)      
1 43707U 18093B   22077.36290705  .00000030  00000+0  00000+0 0  9993
2 43707  54.3882 235.0710 0006550 315.3110  32.9360  1.86232315 22627
BEIDOU-3 IGSO-1 (C38)   
1 44204U 19023A   22077.43518647 -.00000187  00000+0  00000+0 0  9990
2 44204  56.4293  53.9454 0020384 205.8069 191.7156  1.00285845 10804
BEIDOU-2 G8             
1 44231U 19027A   22077.55895553 -.00000248  00000+0  00000+0 0  9999
2 44231   0.6480  71.0604 0004805 144.6894 306.0989  1.00271395 10515
BEIDOU-3 IGSO-2 (C39)   
1 44337U 19035A   22076.88011154 -.00000150  00000+0  00000+0 0  9999
2 44337  55.1130 172.5409 0022591 191.0428 247.5813  1.00281124 10134
BEIDOU-3 M23 (C45)      
1 44542U 19061A   22077.45166085  .00000031  00000+0  00000+0 0  9991
2 44542  54.6139 235.2014 0007872 351.6142   8.3233  1.86231196 16892
BEIDOU-3 M24 (C46)      
1 44543U 19061B   22077.31924519  .00000030  00000+0  00000+0 0  9990
2 44543  54.6116 235.1760 0005116 352.0884 190.2524  1.86231660 16881
BEIDOU-3 IGSO-3         
1 44709U 19073A   22077.44476053 -.00000139  00000+0  00000+0 0  9997
2 44709  57.4106 297.3260 0020459 172.0790 345.8739  1.00283934  8898
BEIDOU-3 M21            
1 44793U 19078A   22077.44735890 -.00000077  00000+0  10000-3 0  9998
2 44793  55.0008 353.7503 0007519   4.9325  96.8330  1.86232120 15750
BEIDOU-3 M22            
1 44794U 19078B   22077.53730741 -.00000077  00000+0  00000+0 0  9994
2 44794  54.9756 353.7396 0005440 359.9877  73.5787  1.86232674 15757
BEIDOU-3 M19            
1 44864U 19090A   22077.13576061  .00000058  00000+0  00000+0 0  9993
2 44864  55.3591 114.6381 0018209 268.6758  90.1817  1.86231795 15321
BEIDOU-3 M20            
1 44865U 19090B   22077.27480082  .00000058  00000+0  00000+0 0  9996
2 44865  55.3620 114.6645 0016497 281.6558 260.3057  1.86231768 15303
BEIDOU-3 G2             
1 45344U 20017A   22077.51646792 -.00000143  00000+0  00000+0 0  9995
2 45344   2.1341 347.6055 0002854  70.3995  23.9970  1.00271523  7711
BEIDOU-3 G3             
1 45807U 20040A   22077.53773223 -.00000357  00000+0  00000+0 0  9994
2 45807   1.6457 300.9955 0008583 339.5982 199.5281  1.00279522  6529
